{"type": "FeatureCollection", "features": [ {"type": "Feature", "properties": {"norad_id": 30530, "name": "FENGYUN 1C DEB", "group": "fengyun-1c-debris", "lat": 47.780478697201175, "lon": -139.66663960890014, "alt_km": 694.7485762620108, "timestamp": "2025-12-18T17:50:15.233946+00:00", "meta": {"OBJECT_NAME": "FENGYUN 1C DEB", "OBJECT_ID": "1999-025AJU", "EPOCH": "2025-12-18T02:18:46.545984", "MEAN_MOTION": 14.3679126, "ECCENTRICITY": 0.01003571, "INCLINATION": 98.3957, "RA_OF_ASC_NODE": 30.3351, "ARG_OF_PERICENTER": 120.9412, "MEAN_ANOMALY": 266.3525, "EPHEMERIS_TYPE": 0, "CLASSIFICATION_TYPE": "U", "NORAD_CAT_ID": 30530, "ELEMENT_SET_NO": 999, "REV_AT_EPOCH": 98862, "BSTAR": 0.00018859168, "MEAN_MOTION_DOT": 5.46e-06, "MEAN_MOTION_DDOT": 0}, "tle": {"line1": "1 30530U 99025AJU 25352.09637206  .00000546  00000+0  18859-3 0  9994", "line2": "2 30530  98.3957  30.3351 0100357 120.9412 266.3525 14.36791260988625"}}, "geometry": {"type": "Point", "coordinates": [-139.66663960890014, 47.780478697201175]}}, {"type": "Feature", "properties": {"norad_id": 30531, "name": "FENGYUN 1C DEB", "group": "fengyun-1c-debris", "lat": -4.480576976874561, "lon": -177.21665431518443, "alt_km": 708.3899727332146, "timestamp": "2025-12-18T17:50:15.233956+00:00", "meta": {"OBJECT_NAME": "FENGYUN 1C DEB", "OBJECT_ID": "1999-025AJV", "EPOCH": "2025-12-18T06:21:44.206272", "MEAN_MOTION": 14.6208062, "ECCENTRICITY": 0.00271747, "INCLINATION": 102.31, "RA_OF_ASC_NODE": 181.0937, "ARG_OF_PERICENTER": 191.2884, "MEAN_ANOMALY": 168.7696, "EPHEMERIS_TYPE": 0, "CLASSIFICATION_TYPE": "U", "NORAD_CAT_ID": 30531, "ELEMENT_SET_NO": 999, "REV_AT_EPOCH": 97776, "BSTAR": 0.0036415617, "MEAN_MOTION_DOT": 0.00018356, "MEAN_MOTION_DDOT": 0}, "tle": {"line1": "1 30531U 99025AJV 25352.26509498  .00018356  00000+0  36416-2 0  9991", "line2": "2 30531 102.3100 181.0937 0027174 191.2884 168.7696 14.62080620977762"}}, "geometry": {"type": "Point", "coordinates": [-177.21665431518443, -4.480576976874561]}}, {"type": "Feature", "properties": {"norad_id": 30532, "name": "FENGYUN 1C DEB", "group": "fengyun-1c-debris", "lat": 80.2537249108998, "lon": -7.754757064387719, "alt_km": 484.1405795526198, "timestamp": "2025-12-18T17:50:15.233966+00:00", "meta": {"OBJECT_NAME": "FENGYUN 1C DEB", "OBJECT_ID": "1999-025AJW", "EPOCH": "2025-12-18T01:46:11.273376", "MEAN_MOTION": 15.29091624, "ECCENTRICITY": 0.00227231, "INCLINATION": 96.9611, "RA_OF_ASC_NODE": 36.9618, "ARG_OF_PERICENTER": 240.0832, "MEAN_ANOMALY": 119.8152, "EPHEMERIS_TYPE": 0, "CLASSIFICATION_TYPE": "U", "NORAD_CAT_ID": 30532, "ELEMENT_SET_NO": 999, "REV_AT_EPOCH": 97769, "BSTAR": 0.0093088358, "MEAN_MOTION_DOT": 0.00274072, "MEAN_MOTION_DDOT": 0}, "tle": {"line1": "1 30532U 99025AJW 25352.07374159  .00274072  00000+0  93088-2 0  9992", "line2": "2 30532  96.9611  36.9618 0022723 240.0832 119.8152 15.29091624977699"}}, "geometry": {"type": "Point", "coordinates": [-7.754757064387719, 80.2537249108998]}}, {"type": "Feature", "properties": {"norad_id": 30533, "name": "FENGYUN 1C DEB", "group": "fengyun-1c-debris", "lat": 24.73964689338217, "lon": -54.005078366091375, "alt_km": 658.7387432600344, "timestamp": "2025-12-18T17:50:15.233976+00:00", "meta": {"OBJECT_NAME": "FENGYUN 1C DEB", "OBJECT_ID": "1999-025AJX", "EPOCH": "2025-12-17T21:52:32.011968", "MEAN_MOTION": 14.53943797, "ECCENTRICITY": 0.0081893, "INCLINATION": 98.8334, "RA_OF_ASC_NODE": 121.0087, "ARG_OF_PERICENTER": 133.7457, "MEAN_ANOMALY": 349.6708, "EPHEMERIS_TYPE": 0, "CLASSIFICATION_TYPE": "U", "NORAD_CAT_ID": 30533, "ELEMENT_SET_NO": 999, "REV_AT_EPOCH": 97896, "BSTAR": 0.0023550429, "MEAN_MOTION_DOT": 0.00010328, "MEAN_MOTION_DDOT": 0}, "tle": {"line1": "1 30533U 99025AJX 25351.91148162  .00010328  00000+0  23550-2 0  9997", "line2": "2 30533  98.8334 121.0087 0081893 133.7457 349.6708 14.53943797978967"}}, "geometry": {"type": "Point", "coordinates": [-54.005078366091375, 24.73964689338217]}}, {"type": "Feature", "properties": {"norad_id": 30539, "name": "FENGYUN 1C DEB", "group": "fengyun-1c-debris", "lat": -80.48869972098916, "lon": 42.50032387382648, "alt_km": 636.6564253316137, "timestamp": "2025-12-18T17:50:15.233986+00:00", "meta": {"OBJECT_NAME": "FENGYUN 1C DEB", "OBJECT_ID": "1999-025AKD", "EPOCH": "2025-12-17T22:25:52.592736", "MEAN_MOTION": 14.55433994, "ECCENTRICITY": 0.01152602, "INCLINATION": 98.8798, "RA_OF_ASC_NODE": 332.7168, "ARG_OF_PERICENTER": 259.9051, "MEAN_ANOMALY": 98.9125, "EPHEMERIS_TYPE": 0, "CLASSIFICATION_TYPE": "U", "NORAD_CAT_ID": 30539, "ELEMENT_SET_NO": 999, "REV_AT_EPOCH": 99441, "BSTAR": 0.00052241638, "MEAN_MOTION_DOT": 2.424e-05, "MEAN_MOTION_DDOT": 0}, "tle": {"line1": "1 30539U 99025AKD 25351.93463649  .00002424  00000+0  52242-3 0  9994", "line2": "2 30539  98.8798 332.7168 0115260 259.9051  98.9125 14.55433994994415"}}, "geometry": {"type": "Point", "coordinates": [42.50032387382648, -80.48869972098916]}}, {"type": "Feature", "properties": {"norad_id": 30540, "name": "FENGYUN 1C DEB", "group": "fengyun-1c-debris", "lat": -17.677861295540918, "lon": 104.08416787705183, "alt_km": 771.6152269844597, "timestamp": "2025-12-18T17:50:15.233996+00:00", "meta": {"OBJECT_NAME": "FENGYUN 1C DEB", "OBJECT_ID": "1999-025AKE", "EPOCH": "2025-12-18T06:26:13.433856", "MEAN_MOTION": 14.32331195, "ECCENTRICITY": 0.00509944, "INCLINATION": 98.8788, "RA_OF_ASC_NODE": 100.7423, "ARG_OF_PERICENTER": 45.7093, "MEAN_ANOMALY": 9.0148, "EPHEMERIS_TYPE": 0, "CLASSIFICATION_TYPE": "U", "NORAD_CAT_ID": 30540, "ELEMENT_SET_NO": 999, "REV_AT_EPOCH": 97365, "BSTAR": 0.0015091217, "MEAN_MOTION_DOT": 4.091e-05, "MEAN_MOTION_DDOT": 0}, "tle": {"line1": "1 30540U 99025AKE 25352.26821104  .00004091  00000+0  15091-2 0  9999", "line2": "2 30540  98.8788 100.7423 0050994  45.7093   9.0148 14.32331195973658"}}, "geometry": {"type": "Point", "coordinates": [104.08416787705183, -17.677861295540918]}}, {"type": "Feature", "properties": {"norad_id": 30541, "name": "FENGYUN 1C DEB", "group": "fengyun-1c-debris", "lat": 3.6677410776971726, "lon": -140.22837969936504, "alt_km": 821.2083376821001, "timestamp": "2025-12-18T17:50:15.234007+00:00", "meta": {"OBJECT_NAME": "FENGYUN 1C DEB", "OBJECT_ID": "1999-025AKF", "EPOCH": "2025-12-18T01:49:38.048448", "MEAN_MOTION": 14.23078007, "ECCENTRICITY": 0.00179968, "INCLINATION": 98.6943, "RA_OF_ASC_NODE": 38.551, "ARG_OF_PERICENTER": 70.8105, "MEAN_ANOMALY": 289.502, "EPHEMERIS_TYPE": 0, "CLASSIFICATION_TYPE": "U", "NORAD_CAT_ID": 30541, "ELEMENT_SET_NO": 999, "REV_AT_EPOCH": 97403, "BSTAR": 0.00091389007, "MEAN_MOTION_DOT": 2.021e-05, "MEAN_MOTION_DDOT": 0}, "tle": {"line1": "1 30541U 99025AKF 25352.07613482  .00002021  00000+0  91389-3 0  9993", "line2": "2 30541  98.6943  38.5510 0017996  70.8105 289.5020 14.23078007974030"}}, "geometry": {"type": "Point", "coordinates": [-140.22837969936504, 3.6677410776971726]}}, {"type": "Feature", "properties": {"norad_id": 30542, "name": "FENGYUN 1C DEB", "group": "fengyun-1c-debris", "lat": 55.04271222768819, "lon": 8.539096435696676, "alt_km": 867.5503260757387, "timestamp": "2025-12-18T17:50:15.234017+00:00", "meta": {"OBJECT_NAME": "FENGYUN 1C DEB", "OBJECT_ID": "1999-025AKG", "EPOCH": "2025-12-18T00:48:07.352352", "MEAN_MOTION": 14.06975912, "ECCENTRICITY": 0.00273131, "INCLINATION": 98.7865, "RA_OF_ASC_NODE": 20.631, "ARG_OF_PERICENTER": 318.9572, "MEAN_ANOMALY": 103.5333, "EPHEMERIS_TYPE": 0, "CLASSIFICATION_TYPE": "U", "NORAD_CAT_ID": 30542, "ELEMENT_SET_NO": 999, "REV_AT_EPOCH": 96993, "BSTAR": 0.00022127135, "MEAN_MOTION_DOT": 3.27e-06, "MEAN_MOTION_DDOT": 0}, "tle": {"line1": "1 30542U 99025AKG 25352.03341843  .00000327  00000+0  22127-3 0  9990", "line2": "2 30542  98.7865  20.6310 0027313 318.9572 103.5333 14.06975912969930"}}, "geometry": {"type": "Point", "coordinates": [8.539096435696676, 55.04271222768819]}}, {"type": "Feature", "properties": {"norad_id": 30543, "name": "FENGYUN 1C DEB", "group": "fengyun-1c-debris", "lat": 61.08692018122782, "lon": -14.212042118081165, "alt_km": 837.8615504084573, "timestamp": "2025-12-18T17:50:15.234027+00:00", "meta": {"OBJECT_NAME": "FENGYUN 1C DEB", "OBJECT_ID": "1999-025AKH", "EPOCH": "2025-12-18T07:20:59.537760", "MEAN_MOTION": 14.03747305, "ECCENTRICITY": 0.00723077, "INCLINATION": 98.8331, "RA_OF_ASC_NODE": 1.715, "ARG_OF_PERICENTER": 18.1533, "MEAN_ANOMALY": 356.577, "EPHEMERIS_TYPE": 0, "CLASSIFICATION_TYPE": "U", "NORAD_CAT_ID": 30543, "ELEMENT_SET_NO": 999, "REV_AT_EPOCH": 96583, "BSTAR": 0.0002397387, "MEAN_MOTION_DOT": 3.43e-06, "MEAN_MOTION_DDOT": 0}, "tle": {"line1": "1 30543U 99025AKH 25352.30624465  .00000343  00000+0  23974-3 0  9994", "line2": "2 30543  98.8331   1.7150 0072307  18.1533 356.5770 14.03747305965831"}}, "geometry": {"type": "Point", "coordinates": [-14.212042118081165, 61.08692018122782]}}, {"type": "Feature", "properties": {"norad_id": 30545, "name": "FENGYUN 1C DEB", "group": "fengyun-1c-debris", "lat": 61.19724711131891, "lon": -172.63768545944112, "alt_km": 1017.5572909163475, "timestamp": "2025-12-18T17:50:15.234037+00:00", "meta": {"OBJECT_NAME": "FENGYUN 1C DEB", "OBJECT_ID": "1999-025AKK", "EPOCH": "2025-12-16T01:55:01.765920", "MEAN_MOTION": 13.20785031, "ECCENTRICITY": 0.04726799, "INCLINATION": 98.9986, "RA_OF_ASC_NODE": 201.8152, "ARG_OF_PERICENTER": 2.8282, "MEAN_ANOMALY": 357.5348, "EPHEMERIS_TYPE": 0, "CLASSIFICATION_TYPE": "U", "NORAD_CAT_ID": 30545, "ELEMENT_SET_NO": 999, "REV_AT_EPOCH": 90974, "BSTAR": 0.00057440201, "MEAN_MOTION_DOT": 3.84e-06, "MEAN_MOTION_DDOT": 0}, "tle": {"line1": "1 30545U 99025AKK 25350.07988155  .00000384  00000+0  57440-3 0  9997", "line2": "2 30545  98.9986 201.8152 0472679   2.8282 357.5348 13.20785031909748"}}, "geometry": {"type": "Point", "coordinates": [-172.63768545944112, 61.19724711131891]}}]}